start=new Date('2023-03-22T00:00:00.000Z').valueOf();
sats=[{"ECCENTRICITY":"0.00014350","ELEMENT_SET_NO":"999","MEAN_MOTION_DDOT":"0.0000000000000","CENTER_NAME":"EARTH","OBJECT_TYPE":"PAYLOAD","SEMIMAJOR_AXIS":"6925.266","LAUNCH_DATE":"2020-11-25","RCS_SIZE":"LARGE","MEAN_MOTION":"15.06426886","COUNTRY_CODE":"US","OBJECT_ID":"2020-088Y","INCLINATION":"53.0533","SITE":"AFETR","PERIOD":"95.590","EPHEMERIS_TYPE":"0","MEAN_MOTION_DOT":"0.00020621","REF_FRAME":"TEME","FILE":"3866730","TLE_LINE2":"2 47144  53.0533 109.6574 0001435 101.1883 258.9267 15.06426886128677","MEAN_ANOMALY":"258.9267","CLASSIFICATION_TYPE":"U","DECAY_DATE":null,"APOAPSIS":"548.125","ARG_OF_PERICENTER":"101.1883","NORAD_CAT_ID":"47144","RA_OF_ASC_NODE":"109.6574","BSTAR":"0.00139820000000","EPOCH":"2023-03-21T07:04:21.848448","PERIAPSIS":"546.137","MEAN_ELEMENT_THEORY":"SGP4","TLE_LINE1":"1 47144U 20088Y   23080.29469732  .00020621  00000-0  13982-2 0  9999","GP_ID":"228586148","REV_AT_EPOCH":"12867","OBJECT_NAME":"STARLINK-1857","TIME_SYSTEM":"UTC"},{"RCS_SIZE":"LARGE","LAUNCH_DATE":"2020-11-25","SEMIMAJOR_AXIS":"6925.378","MEAN_MOTION":"15.06390438","COUNTRY_CODE":"US","OBJECT_ID":"2020-088AB","INCLINATION":"53.0554","SITE":"AFETR","ECCENTRICITY":"0.00016150","ELEMENT_SET_NO":"999","MEAN_MOTION_DDOT":"0.0000000000000","CENTER_NAME":"EARTH","OBJECT_TYPE":"PAYLOAD","RA_OF_ASC_NODE":"127.1632","BSTAR":"-0.00000977570000","PERIAPSIS":"546.124","EPOCH":"2023-03-21T20:23:11.901120","MEAN_ELEMENT_THEORY":"SGP4","TLE_LINE1":"1 47147U 20088AB  23080.84944330 -.00000427  00000-0 -97757-5 0  9994","REV_AT_EPOCH":"12848","GP_ID":"228616153","TIME_SYSTEM":"UTC","OBJECT_NAME":"STARLINK-1860","PERIOD":"95.593","EPHEMERIS_TYPE":"0","REF_FRAME":"TEME","MEAN_MOTION_DOT":"-0.00000427","TLE_LINE2":"2 47147  53.0554 127.1632 0001615  90.0896 270.0278 15.06390438128482","FILE":"3866953","DECAY_DATE":null,"MEAN_ANOMALY":"270.0278","CLASSIFICATION_TYPE":"U","APOAPSIS":"548.361","ARG_OF_PERICENTER":"90.0896","NORAD_CAT_ID":"47147"},{"PERIOD":"95.592","EPHEMERIS_TYPE":"0","FILE":"3866953","TLE_LINE2":"2 47148  53.0539 117.2748 0001868  73.7162 286.4032 15.06405540128613","REF_FRAME":"TEME","MEAN_MOTION_DOT":"0.00009226","MEAN_ANOMALY":"286.4032","CLASSIFICATION_TYPE":"U","DECAY_DATE":null,"NORAD_CAT_ID":"47148","APOAPSIS":"548.490","ARG_OF_PERICENTER":"73.7162","PERIAPSIS":"545.903","EPOCH":"2023-03-21T19:47:21.831936","RA_OF_ASC_NODE":"117.2748","BSTAR":"0.00063734000000","TLE_LINE1":"1 47148U 20088AC  23080.82455824  .00009226  00000-0  63734-3 0  9998","MEAN_ELEMENT_THEORY":"SGP4","GP_ID":"228616402","REV_AT_EPOCH":"12861","OBJECT_NAME":"STARLINK-1861","TIME_SYSTEM":"UTC","ECCENTRICITY":"0.00018680","MEAN_MOTION_DDOT":"0.0000000000000","ELEMENT_SET_NO":"999","OBJECT_TYPE":"PAYLOAD","CENTER_NAME":"EARTH","MEAN_MOTION":"15.06405540","LAUNCH_DATE":"2020-11-25","SEMIMAJOR_AXIS":"6925.332","RCS_SIZE":"LARGE","COUNTRY_CODE":"US","SITE":"AFETR","OBJECT_ID":"2020-088AC","INCLINATION":"53.0539"},{"PERIAPSIS":"546.209","EPOCH":"2023-03-21T20:28:29.918784","RA_OF_ASC_NODE":"127.1498","BSTAR":"0.00019777000000","TLE_LINE1":"1 47149U 20088AD  23080.85312406  .00002665  00000-0  19777-3 0  9998","MEAN_ELEMENT_THEORY":"SGP4","REV_AT_EPOCH":"12921","GP_ID":"228617653","TIME_SYSTEM":"UTC","OBJECT_NAME":"STARLINK-1862","EPHEMERIS_TYPE":"0","PERIOD":"95.592","TLE_LINE2":"2 47149  53.0522 127.1498 0001463  89.6026 270.5131 15.06397302129211","FILE":"3866953","MEAN_MOTION_DOT":"0.00002665","REF_FRAME":"TEME","DECAY_DATE":null,"MEAN_ANOMALY":"270.5131","CLASSIFICATION_TYPE":"U","NORAD_CAT_ID":"47149","APOAPSIS":"548.235","ARG_OF_PERICENTER":"89.6026","MEAN_MOTION":"15.06397302","RCS_SIZE":"LARGE","LAUNCH_DATE":"2020-11-25","SEMIMAJOR_AXIS":"6925.357","COUNTRY_CODE":"US","SITE":"AFETR","OBJECT_ID":"2020-088AD","INCLINATION":"53.0522","ECCENTRICITY":"0.00014630","MEAN_MOTION_DDOT":"0.0000000000000","ELEMENT_SET_NO":"999","OBJECT_TYPE":"PAYLOAD","CENTER_NAME":"EARTH"},{"ECCENTRICITY":"0.00012040","ELEMENT_SET_NO":"999","MEAN_MOTION_DDOT":"0.0000000000000","CENTER_NAME":"EARTH","OBJECT_TYPE":"PAYLOAD","RCS_SIZE":"LARGE","LAUNCH_DATE":"2020-11-25","SEMIMAJOR_AXIS":"6925.233","MEAN_MOTION":"15.06437612","COUNTRY_CODE":"US","OBJECT_ID":"2020-088AE","INCLINATION":"53.0531","SITE":"AFETR","EPHEMERIS_TYPE":"0","PERIOD":"95.590","REF_FRAME":"TEME","MEAN_MOTION_DOT":"0.00022318","TLE_LINE2":"2 47150  53.0531 118.6679 0001204  73.3251 286.7870 15.06437612128578","FILE":"3866953","DECAY_DATE":null,"CLASSIFICATION_TYPE":"U","MEAN_ANOMALY":"286.7870","APOAPSIS":"547.932","ARG_OF_PERICENTER":"73.3251","NORAD_CAT_ID":"47150","RA_OF_ASC_NODE":"118.6679","BSTAR":"0.00151090000000","PERIAPSIS":"546.264","EPOCH":"2023-03-21T12:21:30.011616","MEAN_ELEMENT_THEORY":"SGP4","TLE_LINE1":"1 47150U 20088AE  23080.51493069  .00022318  00000-0  15109-2 0  9999","REV_AT_EPOCH":"12857","GP_ID":"228617903","OBJECT_NAME":"STARLINK-1863","TIME_SYSTEM":"UTC"},{"CENTER_NAME":"EARTH","OBJECT_TYPE":"PAYLOAD","ECCENTRICITY":"0.00018660","ELEMENT_SET_NO":"999","MEAN_MOTION_DDOT":"0.0000000000000","OBJECT_ID":"2020-088AF","INCLINATION":"53.0513","SITE":"AFETR","RCS_SIZE":"LARGE","LAUNCH_DATE":"2020-11-25","SEMIMAJOR_AXIS":"6925.258","MEAN_MOTION":"15.06429709","COUNTRY_CODE":"US","DECAY_DATE":null,"MEAN_ANOMALY":"286.7133","CLASSIFICATION_TYPE":"U","APOAPSIS":"548.415","ARG_OF_PERICENTER":"73.4060","NORAD_CAT_ID":"47151","PERIOD":"95.590","EPHEMERIS_TYPE":"0","REF_FRAME":"TEME","MEAN_MOTION_DOT":"0.00008220","TLE_LINE2":"2 47151  53.0513 127.1820 0001866  73.4060 286.7133 15.06429709128474","FILE":"3866953","REV_AT_EPOCH":"12847","GP_ID":"228616652","OBJECT_NAME":"STARLINK-1864","TIME_SYSTEM":"UTC","BSTAR":"0.00056963000000","RA_OF_ASC_NODE":"127.1820","EPOCH":"2023-03-21T20:17:52.275552","PERIAPSIS":"545.830","MEAN_ELEMENT_THEORY":"SGP4","TLE_LINE1":"1 47151U 20088AF  23080.84574393  .00008220  00000-0  56963-3 0  9996"},{"ELEMENT_SET_NO":"999","MEAN_MOTION_DDOT":"0.0000000000000","ECCENTRICITY":"0.00018400","CENTER_NAME":"EARTH","OBJECT_TYPE":"PAYLOAD","COUNTRY_CODE":"US","LAUNCH_DATE":"2020-11-25","SEMIMAJOR_AXIS":"6925.415","RCS_SIZE":"LARGE","MEAN_MOTION":"15.06378471","OBJECT_ID":"2020-088AG","INCLINATION":"53.0531","SITE":"AFETR","MEAN_MOTION_DOT":"0.00004125","REF_FRAME":"TEME","FILE":"3866953","TLE_LINE2":"2 47152  53.0531 127.2455 0001840  75.7356 284.3837 15.06378471128479","PERIOD":"95.594","EPHEMERIS_TYPE":"0","ARG_OF_PERICENTER":"75.7356","APOAPSIS":"548.554","NORAD_CAT_ID":"47152","CLASSIFICATION_TYPE":"U","MEAN_ANOMALY":"284.3837","DECAY_DATE":null,"MEAN_ELEMENT_THEORY":"SGP4","TLE_LINE1":"1 47152U 20088AG  23080.83008149  .00004125  00000-0  29586-3 0  9998","RA_OF_ASC_NODE":"127.2455","BSTAR":"0.00029586000000","PERIAPSIS":"546.005","EPOCH":"2023-03-21T19:55:19.040736","OBJECT_NAME":"STARLINK-1866","TIME_SYSTEM":"UTC","GP_ID":"228616902","REV_AT_EPOCH":"12847"},{"DECAY_DATE":null,"CLASSIFICATION_TYPE":"U","MEAN_ANOMALY":"289.5696","APOAPSIS":"548.371","ARG_OF_PERICENTER":"70.5484","NORAD_CAT_ID":"47153","EPHEMERIS_TYPE":"0","PERIOD":"95.591","REF_FRAME":"TEME","MEAN_MOTION_DOT":"0.00014928","TLE_LINE2":"2 47153  53.0517 132.4977 0001769  70.5484 289.5696 15.06421995128409","FILE":"3866953","REV_AT_EPOCH":"12840","GP_ID":"228617154","OBJECT_NAME":"STARLINK-1867","TIME_SYSTEM":"UTC","RA_OF_ASC_NODE":"132.4977","BSTAR":"0.00101830000000","EPOCH":"2023-03-21T19:53:21.832224","PERIAPSIS":"545.921","MEAN_ELEMENT_THEORY":"SGP4","TLE_LINE1":"1 47153U 20088AH  23080.82872491  .00014928  00000-0  10183-2 0  9991","CENTER_NAME":"EARTH","OBJECT_TYPE":"PAYLOAD","ECCENTRICITY":"0.00017690","ELEMENT_SET_NO":"999","MEAN_MOTION_DDOT":"0.0000000000000","OBJECT_ID":"2020-088AH","INCLINATION":"53.0517","SITE":"AFETR","RCS_SIZE":"LARGE","SEMIMAJOR_AXIS":"6925.281","LAUNCH_DATE":"2020-11-25","MEAN_MOTION":"15.06421995","COUNTRY_CODE":"US"},{"MEAN_ANOMALY":"252.2033","CLASSIFICATION_TYPE":"U","DECAY_DATE":null,"APOAPSIS":"548.115","ARG_OF_PERICENTER":"107.9094","NORAD_CAT_ID":"47154","PERIOD":"95.593","EPHEMERIS_TYPE":"0","REF_FRAME":"TEME","MEAN_MOTION_DOT":"-0.00009575","FILE":"3866953","TLE_LINE2":"2 47154  53.0536 117.3744 0001263 107.9094 252.2033 15.06391286128610","GP_ID":"228617405","REV_AT_EPOCH":"12861","OBJECT_NAME":"STARLINK-1868","TIME_SYSTEM":"UTC","RA_OF_ASC_NODE":"117.3744","BSTAR":"-0.00062491000000","PERIAPSIS":"546.366","EPOCH":"2023-03-21T19:15:30.843648","MEAN_ELEMENT_THEORY":"SGP4","TLE_LINE1":"1 47154U 20088AJ  23080.80244032 -.00009575  00000-0 -62491-3 0  9998","CENTER_NAME":"EARTH","OBJECT_TYPE":"PAYLOAD","ECCENTRICITY":"0.00012630","ELEMENT_SET_NO":"999","MEAN_MOTION_DDOT":"0.0000000000000","OBJECT_ID":"2020-088AJ","INCLINATION":"53.0536","SITE":"AFETR","SEMIMAJOR_AXIS":"6925.375","LAUNCH_DATE":"2020-11-25","RCS_SIZE":"LARGE","MEAN_MOTION":"15.06391286","COUNTRY_CODE":"US"},{"MEAN_MOTION_DDOT":"0.0000000000000","ELEMENT_SET_NO":"999","ECCENTRICITY":"0.00016610","OBJECT_TYPE":"PAYLOAD","CENTER_NAME":"EARTH","COUNTRY_CODE":"US","MEAN_MOTION":"15.06441190","RCS_SIZE":"LARGE","LAUNCH_DATE":"2020-11-25","SEMIMAJOR_AXIS":"6925.222","SITE":"AFETR","OBJECT_ID":"2020-088AK","INCLINATION":"53.0534","TLE_LINE2":"2 47155  53.0534 139.0048 0001661  98.4791 261.6386 15.06441190128274","FILE":"3866730","MEAN_MOTION_DOT":"0.00028666","REF_FRAME":"TEME","EPHEMERIS_TYPE":"0","PERIOD":"95.590","NORAD_CAT_ID":"47155","APOAPSIS":"548.238","ARG_OF_PERICENTER":"98.4791","DECAY_DATE":null,"CLASSIFICATION_TYPE":"U","MEAN_ANOMALY":"261.6386","TLE_LINE1":"1 47155U 20088AK  23080.43938766  .00028666  00000-0  19334-2 0  9999","MEAN_ELEMENT_THEORY":"SGP4","EPOCH":"2023-03-21T10:32:43.093824","PERIAPSIS":"545.937","BSTAR":"0.00193340000000","RA_OF_ASC_NODE":"139.0048","TIME_SYSTEM":"UTC","OBJECT_NAME":"STARLINK-1869","REV_AT_EPOCH":"12827","GP_ID":"228585900"}];
